[{"OBJECT_NAME":"YAOGAN-35 02A","OBJECT_ID":"2022-068A","EPOCH":"2026-03-09T23:36:37.257984","MEAN_MOTION":15.22666149,"ECCENTRICITY":0.00125559,"INCLINATION":34.9934,"RA_OF_ASC_NODE":42.9156,"ARG_OF_PERICENTER":259.7032,"MEAN_ANOMALY":100.2267,"EPHEMERIS_TYPE":0,"CLASSIFICATION_TYPE":"U","NORAD_CAT_ID":52907,"ELEMENT_SET_NO":999,"REV_AT_EPOCH":20675,"BSTAR":0.00043413541,"MEAN_MOTION_DOT":0.00010355,"MEAN_MOTION_DDOT":0},{"OBJECT_NAME":"STARLINK-30613","OBJECT_ID":"2023-160C","EPOCH":"2026-03-09T01:52:28.305696","MEAN_MOTION":15.26737117,"ECCENTRICITY":9.719e-5,"INCLINATION":42.9982,"RA_OF_ASC_NODE":81.2216,"ARG_OF_PERICENTER":276.131,"MEAN_ANOMALY":83.9431,"EPHEMERIS_TYPE":0,"CLASSIFICATION_TYPE":"U","NORAD_CAT_ID":58077,"ELEMENT_SET_NO":999,"REV_AT_EPOCH":13286,"BSTAR":-7.0440871e-5,"MEAN_MOTION_DOT":-2.148e-5,"MEAN_MOTION_DDOT":0}]
